{
    "links": {
        "self": "http://www.neowsapp.com/rest/v1/neo/54087858?api_key=iIulBulltgU6a56xZRHN4H3l9WmuAYTsLGpBGhQ2"
    },
    "id": "54087858",
    "neo_reference_id": "54087858",
    "name": "(2020 VY5)",
    "designation": "2020 VY5",
    "nasa_jpl_url": "http://ssd.jpl.nasa.gov/sbdb.cgi?sstr=54087858",
    "absolute_magnitude_h": 24.443,
    "estimated_diameter": {
        "kilometers": {
            "estimated_diameter_min": 0.0343522333,
            "estimated_diameter_max": 0.0768139288
        },
        "meters": {
            "estimated_diameter_min": 34.3522333027,
            "estimated_diameter_max": 76.8139288437
        },
        "miles": {
            "estimated_diameter_min": 0.0213454816,
            "estimated_diameter_max": 0.0477299478
        },
        "feet": {
            "estimated_diameter_min": 112.7041811088,
            "estimated_diameter_max": 252.0142103077
        }
    },
    "is_potentially_hazardous_asteroid": false,
    "close_approach_data": [
        {
            "close_approach_date": "2020-09-08",
            "close_approach_date_full": "2020-Sep-08 06:35",
            "epoch_date_close_approach": 1599546900000,
            "relative_velocity": {
                "kilometers_per_second": "10.5756271034",
                "kilometers_per_hour": "38072.2575722281",
                "miles_per_hour": "23656.6202675881"
            },
            "miss_distance": {
                "astronomical": "0.0128179436",
                "lunar": "4.9861800604",
                "kilometers": "1917537.060340132",
                "miles": "1191502.2786005416"
            },
            "orbiting_body": "Mars"
        },
        {
            "close_approach_date": "2020-11-19",
            "close_approach_date_full": "2020-Nov-19 10:30",
            "epoch_date_close_approach": 1605781800000,
            "relative_velocity": {
                "kilometers_per_second": "3.8869982844",
                "kilometers_per_hour": "13993.1938236681",
                "miles_per_hour": "8694.8264622675"
            },
            "miss_distance": {
                "astronomical": "0.1713816651",
                "lunar": "66.6674677239",
                "kilometers": "25638332.056013337",
                "miles": "15930920.8129925706"
            },
            "orbiting_body": "Earth"
        },
        {
            "close_approach_date": "2121-11-20",
            "close_approach_date_full": "2121-Nov-20 19:15",
            "epoch_date_close_approach": 4793109300000,
            "relative_velocity": {
                "kilometers_per_second": "4.619906803",
                "kilometers_per_hour": "16631.6644908998",
                "miles_per_hour": "10334.2695276927"
            },
            "miss_distance": {
                "astronomical": "0.1950105802",
                "lunar": "75.8591156978",
                "kilometers": "29173167.425384174",
                "miles": "18127365.6610186412"
            },
            "orbiting_body": "Earth"
        }
    ],
    "orbital_data": {
        "orbit_id": "3",
        "orbit_determination_date": "2020-11-25 05:21:38",
        "first_observation_date": "2020-11-13",
        "last_observation_date": "2020-11-25",
        "data_arc_in_days": 12,
        "observations_used": 25,
        "orbit_uncertainty": "8",
        "minimum_orbit_intersection": ".164276",
        "jupiter_tisserand_invariant": "3.464",
        "epoch_osculation": "2459169.5",
        "eccentricity": ".4874458869528591",
        "semi_major_axis": "2.246125111156276",
        "inclination": "1.24765345794118",
        "ascending_node_longitude": "106.7598238877925",
        "orbital_period": "1229.558911075697",
        "perihelion_distance": "1.151260664141616",
        "perihelion_argument": "312.9655494685385",
        "aphelion_distance": "3.340989558170937",
        "perihelion_time": "2459172.706467126467",
        "mean_anomaly": "359.0611851493002",
        "mean_motion": ".29278792317893",
        "equinox": "J2000",
        "orbit_class": {
            "orbit_class_type": "AMO",
            "orbit_class_description": "Near-Earth asteroid orbits similar to that of 1221 Amor",
            "orbit_class_range": "1.017 AU < q (perihelion) < 1.3 AU"
        }
    },
    "is_sentry_object": false
}